[{"OBJECT_NAME":"STARLINK-30370","OBJECT_ID":"2023-131V","EPOCH":"2026-03-09T22:00:01.999584","MEAN_MOTION":15.26761392,"ECCENTRICITY":0.00016504,"INCLINATION":43,"RA_OF_ASC_NODE":156.2263,"ARG_OF_PERICENTER":273.1217,"MEAN_ANOMALY":211.1911,"EPHEMERIS_TYPE":0,"CLASSIFICATION_TYPE":"U","NORAD_CAT_ID":57751,"ELEMENT_SET_NO":999,"REV_AT_EPOCH":578,"BSTAR":-0.00066720584,"MEAN_MOTION_DOT":-0.00018125,"MEAN_MOTION_DDOT":0},{"OBJECT_NAME":"WT 1B","OBJECT_ID":"2019-032G","EPOCH":"2026-03-09T21:42:21.881088","MEAN_MOTION":15.25021485,"ECCENTRICITY":0.0008099,"INCLINATION":44.9738,"RA_OF_ASC_NODE":242.0209,"ARG_OF_PERICENTER":49.7728,"MEAN_ANOMALY":310.3861,"EPHEMERIS_TYPE":0,"CLASSIFICATION_TYPE":"U","NORAD_CAT_ID":44316,"ELEMENT_SET_NO":999,"REV_AT_EPOCH":37191,"BSTAR":0.00065022477,"MEAN_MOTION_DOT":0.00016297,"MEAN_MOTION_DDOT":0}]
